ONEWEB-0233             
1 48795U 21045AE  25011.49466516  .00000196  00000+0  48627-3 0  9990
2 48795  87.9074   3.1154 0001664  97.3507 262.7812 13.15547828176817
ONEWEB-0190             
1 48796U 21045AF  25010.49244089  .00000124  00000+0  29573-3 0  9999
2 48796  87.9074   3.2764 0001203 116.6610 243.4644 13.15546342175644
ONEWEB-0236             
1 48797U 21045AG  25011.42255875  .00000217  00000+0  54113-3 0  9990
2 48797  87.9077   3.0932 0001764  92.1394 267.9939 13.15546498176777
ONEWEB-0248             
1 48798U 21045AH  25011.51129970  .00000132  00000+0  31582-3 0  9998
2 48798  87.9072   3.0480 0001783 111.6855 248.4465 13.15547700176945
ONEWEB-0225             
1 48799U 21045AJ  25010.39261830 -.00000291  00000+0 -80649-3 0  9992
2 48799  87.9072   3.2922 0001480  99.2092 260.9206 13.15545630175689
ONEWEB-0215             
1 48800U 21045AK  25011.50336815  .00000218  00000+0  54390-3 0  9996
2 48800  87.9067   3.0338 0001589 114.2811 245.8485 13.15546929176822
ONEWEB-0216             
1 48801U 21045AL  25010.37201936 -.00000033  00000+0 -12253-3 0  9995
2 48801  87.9070   3.3022 0001579  82.4904 277.6406 13.15550034175566
ONEWEB-0239             
1 48802U 21045AM  25011.44157079  .00000023  00000+0  27896-4 0  9990
2 48802  87.9079   3.0836 0001809 116.6546 243.4769 13.15546872176888
